start=new Date('2021-10-12T00:00:00.000Z').valueOf();
sats=[{"CLASSIFICATION_TYPE":"U","OBJECT_ID":"2021-005AQ","BSTAR":"0.00002073700000","EPHEMERIS_TYPE":"0","LAUNCH_DATE":"2021-01-20","MEAN_MOTION":"15.06394042","SITE":"AFETR","RA_OF_ASC_NODE":"88.9081","ECCENTRICITY":"0.00016900","EPOCH":"2021-10-11T18:02:20.937408","ELEMENT_SET_NO":"999","PERIOD":"95.593","TLE_LINE2":"2 47387  53.0551  88.9081 0001690  96.0658 264.0523 15.06394042 40385","MEAN_MOTION_DDOT":"0.0000000000000","FILE":"3157563","APOAPSIS":"548.402","TIME_SYSTEM":"UTC","OBJECT_TYPE":"PAYLOAD","REF_FRAME":"TEME","OBJECT_NAME":"STARLINK-2108","REV_AT_EPOCH":"4038","SEMIMAJOR_AXIS":"6925.367","MEAN_ANOMALY":"264.0523","RCS_SIZE":"LARGE","MEAN_ELEMENT_THEORY":"SGP4","ARG_OF_PERICENTER":"96.0658","INCLINATION":"53.0551","CENTER_NAME":"EARTH","NORAD_CAT_ID":"47387","COUNTRY_CODE":"US","PERIAPSIS":"546.061","DECAY_DATE":null,"GP_ID":"186930297","TLE_LINE1":"1 47387U 21005AQ  21284.75163122  .00000027  00000-0  20737-4 0  9993","MEAN_MOTION_DOT":"0.00000027"},{"TIME_SYSTEM":"UTC","APOAPSIS":"548.298","FILE":"3157563","MEAN_MOTION_DDOT":"0.0000000000000","TLE_LINE2":"2 47388  53.0558  88.8448 0001525  99.8028 260.3133 15.06390599 40387","PERIOD":"95.593","ELEMENT_SET_NO":"999","ECCENTRICITY":"0.00015250","EPOCH":"2021-10-11T18:23:34.974528","RA_OF_ASC_NODE":"88.8448","MEAN_MOTION":"15.06390599","SITE":"AFETR","LAUNCH_DATE":"2021-01-20","EPHEMERIS_TYPE":"0","BSTAR":"-0.00002379000000","OBJECT_ID":"2021-005AR","CLASSIFICATION_TYPE":"U","SEMIMAJOR_AXIS":"6925.377","REV_AT_EPOCH":"4038","OBJECT_NAME":"STARLINK-2109","REF_FRAME":"TEME","OBJECT_TYPE":"PAYLOAD","RCS_SIZE":"LARGE","MEAN_ANOMALY":"260.3133","MEAN_MOTION_DOT":"-0.00000636","TLE_LINE1":"1 47388U 21005AR  21284.76637702 -.00000636  00000-0 -23790-4 0  9995","GP_ID":"186930048","DECAY_DATE":null,"PERIAPSIS":"546.186","COUNTRY_CODE":"US","NORAD_CAT_ID":"47388","CENTER_NAME":"EARTH","INCLINATION":"53.0558","ARG_OF_PERICENTER":"99.8028","MEAN_ELEMENT_THEORY":"SGP4"},{"NORAD_CAT_ID":"47389","COUNTRY_CODE":"US","PERIAPSIS":"546.044","DECAY_DATE":null,"GP_ID":"186928796","TLE_LINE1":"1 47389U 21005AS  21284.67974859  .00000036  00000-0  21295-4 0  9993","MEAN_MOTION_DOT":"0.00000036","MEAN_ELEMENT_THEORY":"SGP4","ARG_OF_PERICENTER":"98.1808","INCLINATION":"53.0540","CENTER_NAME":"EARTH","RCS_SIZE":"LARGE","MEAN_ANOMALY":"261.9372","OBJECT_NAME":"STARLINK-2110","REV_AT_EPOCH":"4065","SEMIMAJOR_AXIS":"6925.346","OBJECT_TYPE":"PAYLOAD","REF_FRAME":"TEME","PERIOD":"95.592","ELEMENT_SET_NO":"999","TLE_LINE2":"2 47389  53.0540  69.2255 0001685  98.1808 261.9372 15.06400855 40652","MEAN_MOTION_DDOT":"0.0000000000000","FILE":"3157563","APOAPSIS":"548.378","TIME_SYSTEM":"UTC","CLASSIFICATION_TYPE":"U","OBJECT_ID":"2021-005AS","BSTAR":"0.00002129500000","EPHEMERIS_TYPE":"0","LAUNCH_DATE":"2021-01-20","MEAN_MOTION":"15.06400855","SITE":"AFETR","RA_OF_ASC_NODE":"69.2255","EPOCH":"2021-10-11T16:18:50.278176","ECCENTRICITY":"0.00016850"},{"RCS_SIZE":"LARGE","MEAN_ANOMALY":"261.0292","NORAD_CAT_ID":"47390","COUNTRY_CODE":"US","PERIAPSIS":"545.817","DECAY_DATE":null,"GP_ID":"186929546","TLE_LINE1":"1 47390U 21005AT  21284.74056964  .00001368  00000-0  11072-3 0  9991","MEAN_MOTION_DOT":"0.00001368","MEAN_ELEMENT_THEORY":"SGP4","ARG_OF_PERICENTER":"99.0925","CENTER_NAME":"EARTH","INCLINATION":"53.0552","ELEMENT_SET_NO":"999","PERIOD":"95.592","TLE_LINE2":"2 47390  53.0552  88.9487 0002014  99.0925 261.0292 15.06400499 40385","MEAN_MOTION_DDOT":"0.0000000000000","FILE":"3157563","APOAPSIS":"548.607","TIME_SYSTEM":"UTC","CLASSIFICATION_TYPE":"U","OBJECT_ID":"2021-005AT","BSTAR":"0.00011072000000","EPHEMERIS_TYPE":"0","LAUNCH_DATE":"2021-01-20","SITE":"AFETR","MEAN_MOTION":"15.06400499","RA_OF_ASC_NODE":"88.9487","EPOCH":"2021-10-11T17:46:25.216896","ECCENTRICITY":"0.00020140","OBJECT_NAME":"STARLINK-2111","SEMIMAJOR_AXIS":"6925.347","REV_AT_EPOCH":"4038","OBJECT_TYPE":"PAYLOAD","REF_FRAME":"TEME"},{"OBJECT_NAME":"STARLINK-2112","SEMIMAJOR_AXIS":"6925.333","REV_AT_EPOCH":"4081","REF_FRAME":"TEME","OBJECT_TYPE":"PAYLOAD","FILE":"3157563","MEAN_MOTION_DDOT":"0.0000000000000","TLE_LINE2":"2 47391  53.0552  58.6132 0001723  94.2182 265.9004 15.06405117 40819","ELEMENT_SET_NO":"999","PERIOD":"95.592","TIME_SYSTEM":"UTC","APOAPSIS":"548.391","EPHEMERIS_TYPE":"0","BSTAR":"0.00004019300000","OBJECT_ID":"2021-005AU","CLASSIFICATION_TYPE":"U","ECCENTRICITY":"0.00017230","EPOCH":"2021-10-11T19:35:11.401152","RA_OF_ASC_NODE":"58.6132","MEAN_MOTION":"15.06405117","SITE":"AFETR","LAUNCH_DATE":"2021-01-20","DECAY_DATE":null,"PERIAPSIS":"546.005","COUNTRY_CODE":"US","NORAD_CAT_ID":"47391","MEAN_MOTION_DOT":"0.00000317","TLE_LINE1":"1 47391U 21005AU  21284.81610418  .00000317  00000-0  40193-4 0  9990","GP_ID":"186929798","MEAN_ELEMENT_THEORY":"SGP4","CENTER_NAME":"EARTH","INCLINATION":"53.0552","ARG_OF_PERICENTER":"94.2182","RCS_SIZE":"LARGE","MEAN_ANOMALY":"265.9004"},{"OBJECT_TYPE":"PAYLOAD","REF_FRAME":"TEME","OBJECT_NAME":"STARLINK-2113","SEMIMAJOR_AXIS":"6925.363","REV_AT_EPOCH":"4082","OBJECT_ID":"2021-005AV","CLASSIFICATION_TYPE":"U","EPHEMERIS_TYPE":"0","BSTAR":"0.00003248700000","SITE":"AFETR","MEAN_MOTION":"15.06395290","LAUNCH_DATE":"2021-01-20","ECCENTRICITY":"0.00018200","EPOCH":"2021-10-11T21:12:05.951808","RA_OF_ASC_NODE":"58.3123","TLE_LINE2":"2 47392  53.0537  58.3123 0001820  97.0376 263.0820 15.06395290 40820","ELEMENT_SET_NO":"999","PERIOD":"95.592","FILE":"3157563","MEAN_MOTION_DDOT":"0.0000000000000","APOAPSIS":"548.488","TIME_SYSTEM":"UTC","MEAN_ELEMENT_THEORY":"SGP4","ARG_OF_PERICENTER":"97.0376","INCLINATION":"53.0537","CENTER_NAME":"EARTH","COUNTRY_CODE":"US","NORAD_CAT_ID":"47392","DECAY_DATE":null,"PERIAPSIS":"545.968","GP_ID":"186930548","MEAN_MOTION_DOT":"0.00000202","TLE_LINE1":"1 47392U 21005AV  21284.88340222  .00000202  00000-0  32487-4 0  9991","MEAN_ANOMALY":"263.0820","RCS_SIZE":"LARGE"},{"BSTAR":"0.00018339000000","EPHEMERIS_TYPE":"0","CLASSIFICATION_TYPE":"U","OBJECT_ID":"2021-005AW","RA_OF_ASC_NODE":"34.5798","EPOCH":"2021-10-11T14:38:36.591936","ECCENTRICITY":"0.00013130","LAUNCH_DATE":"2021-01-20","MEAN_MOTION":"15.06398666","SITE":"AFETR","MEAN_MOTION_DDOT":"0.0000000000000","FILE":"3157068","ELEMENT_SET_NO":"999","PERIOD":"95.592","TLE_LINE2":"2 47393  53.0462  34.5798 0001313 116.1928 243.9196 15.06398666 41133","TIME_SYSTEM":"UTC","APOAPSIS":"548.127","REF_FRAME":"TEME","OBJECT_TYPE":"PAYLOAD","OBJECT_NAME":"STARLINK-2114","REV_AT_EPOCH":"4113","SEMIMAJOR_AXIS":"6925.353","MEAN_ANOMALY":"243.9196","RCS_SIZE":"LARGE","MEAN_ELEMENT_THEORY":"SGP4","INCLINATION":"53.0462","CENTER_NAME":"EARTH","ARG_OF_PERICENTER":"116.1928","PERIAPSIS":"546.308","DECAY_DATE":null,"NORAD_CAT_ID":"47393","COUNTRY_CODE":"US","TLE_LINE1":"1 47393U 21005AW  21284.61014574  .00002451  00000-0  18339-3 0  9998","MEAN_MOTION_DOT":"0.00002451","GP_ID":"186896083"},{"TLE_LINE2":"2 47394  53.0561  54.4810 0001930  94.6969 265.4240 15.06401267 40860","ELEMENT_SET_NO":"999","PERIOD":"95.592","MEAN_MOTION_DDOT":"0.0000000000000","FILE":"3157068","APOAPSIS":"548.546","TIME_SYSTEM":"UTC","OBJECT_ID":"2021-005AX","CLASSIFICATION_TYPE":"U","EPHEMERIS_TYPE":"0","BSTAR":"0.00005179600000","SITE":"AFETR","MEAN_MOTION":"15.06401267","LAUNCH_DATE":"2021-01-20","EPOCH":"2021-10-11T15:02:30.074208","ECCENTRICITY":"0.00019300","RA_OF_ASC_NODE":"54.4810","OBJECT_NAME":"STARLINK-2115","REV_AT_EPOCH":"4086","SEMIMAJOR_AXIS":"6925.345","OBJECT_TYPE":"PAYLOAD","REF_FRAME":"TEME","RCS_SIZE":"LARGE","MEAN_ANOMALY":"265.4240","COUNTRY_CODE":"US","NORAD_CAT_ID":"47394","DECAY_DATE":null,"PERIAPSIS":"545.873","GP_ID":"186894844","MEAN_MOTION_DOT":"0.00000490","TLE_LINE1":"1 47394U 21005AX  21284.62673697  .00000490  00000-0  51796-4 0  9993","MEAN_ELEMENT_THEORY":"SGP4","ARG_OF_PERICENTER":"94.6969","INCLINATION":"53.0561","CENTER_NAME":"EARTH"},{"OBJECT_NAME":"STARLINK-2117","REV_AT_EPOCH":"4093","SEMIMAJOR_AXIS":"6925.345","REF_FRAME":"TEME","OBJECT_TYPE":"PAYLOAD","MEAN_MOTION_DDOT":"0.0000000000000","FILE":"3157563","TLE_LINE2":"2 47395  53.0568  49.2982 0001675  89.6530 270.4651 15.06401292 40932","PERIOD":"95.592","ELEMENT_SET_NO":"999","TIME_SYSTEM":"UTC","APOAPSIS":"548.370","EPHEMERIS_TYPE":"0","BSTAR":"0.00016188000000","OBJECT_ID":"2021-005AY","CLASSIFICATION_TYPE":"U","EPOCH":"2021-10-11T15:54:57.204576","ECCENTRICITY":"0.00016750","RA_OF_ASC_NODE":"49.2982","SITE":"AFETR","MEAN_MOTION":"15.06401292","LAUNCH_DATE":"2021-01-20","DECAY_DATE":null,"PERIAPSIS":"546.050","COUNTRY_CODE":"US","NORAD_CAT_ID":"47395","MEAN_MOTION_DOT":"0.00002131","TLE_LINE1":"1 47395U 21005AY  21284.66316209  .00002131  00000-0  16188-3 0  9990","GP_ID":"186930298","MEAN_ELEMENT_THEORY":"SGP4","CENTER_NAME":"EARTH","INCLINATION":"53.0568","ARG_OF_PERICENTER":"89.6530","RCS_SIZE":"LARGE","MEAN_ANOMALY":"270.4651"},{"OBJECT_NAME":"STARLINK-2118","SEMIMAJOR_AXIS":"6925.365","REV_AT_EPOCH":"4082","REF_FRAME":"TEME","OBJECT_TYPE":"PAYLOAD","FILE":"3157563","MEAN_MOTION_DDOT":"0.0000000000000","TLE_LINE2":"2 47396  53.0566  58.5125 0001817 103.7918 256.3273 15.06394619 40824","PERIOD":"95.592","ELEMENT_SET_NO":"999","TIME_SYSTEM":"UTC","APOAPSIS":"548.488","EPHEMERIS_TYPE":"0","BSTAR":"0.00013321000000","OBJECT_ID":"2021-005AZ","CLASSIFICATION_TYPE":"U","EPOCH":"2021-10-11T20:08:24.595584","ECCENTRICITY":"0.00018170","RA_OF_ASC_NODE":"58.5125","SITE":"AFETR","MEAN_MOTION":"15.06394619","LAUNCH_DATE":"2021-01-20","DECAY_DATE":null,"PERIAPSIS":"545.972","COUNTRY_CODE":"US","NORAD_CAT_ID":"47396","MEAN_MOTION_DOT":"0.00001703","TLE_LINE1":"1 47396U 21005AZ  21284.83917356  .00001703  00000-0  13321-3 0  9990","GP_ID":"186930049","MEAN_ELEMENT_THEORY":"SGP4","CENTER_NAME":"EARTH","INCLINATION":"53.0566","ARG_OF_PERICENTER":"103.7918","RCS_SIZE":"LARGE","MEAN_ANOMALY":"256.3273"}];
